H1 CPF 01  gfz 2021 11 08 01  8121 tandemx   
H2 1003001  6202 36605    2021 11 08 00 59 42 2021 11 13 00 00 42   120 1 1  0 0 0
H9
10 0 59530   5742.000000  0   -2801361.675  -6276655.962    459545.422
10 0 59530   5862.000000  0   -2913034.021  -6092028.621   1356099.936
10 0 59530   5982.000000  0   -2969594.523  -5799409.157   2228772.056
10 0 59530   6102.000000  0   -2968211.133  -5404890.807   3062190.111
10 0 59530   6222.000000  0   -2907196.517  -4916405.652   3841679.271
10 0 59530   6342.000000  0   -2786066.482  -4343559.439   4553525.161
10 0 59530   6462.000000  0   -2605573.726  -3697435.313   5185217.623
10 0 59530   6582.000000  0   -2367715.620  -2990370.939   5725670.553
10 0 59530   6702.000000  0   -2075715.054  -2235715.284   6165412.679
10 0 59530   6822.000000  0   -1733976.379  -1447571.990   6496748.766
10 0 59530   6942.000000  0   -1348016.812   -640531.616   6713889.471
10 0 59530   7062.000000  0    -924375.658    170601.430   6813044.824
10 0 59530   7182.000000  0    -470503.783    971079.149   6792485.595
10 0 59530   7302.000000  0       5367.410   1746477.646   6652572.428
10 0 59530   7422.000000  0     494375.209   2482956.960   6395749.900
10 0 59530   7542.000000  0     987190.128   3167507.913   6026505.876
10 0 59530   7662.000000  0    1474192.696   3788183.238   5551298.169
10 0 59530   7782.000000  0    1945660.169   4334309.985   4978447.536
10 0 59530   7902.000000  0    2391960.880   4796679.128   4317998.005
10 0 59530   8022.000000  0    2803751.453   5167707.012   3581544.567
10 0 59530   8142.000000  0    3172172.419   5441566.519   2782033.994
10 0 59530   8262.000000  0    3489040.714   5614288.380   1933537.024
10 0 59530   8382.000000  0    3747030.414   5683821.663   1050994.824
10 0 59530   8502.000000  0    3939837.328   5650056.745    149950.223
10 0 59530   8622.000000  0    4062325.742   5514808.299   -753734.852
10 0 59530   8742.000000  0    4110651.619   5281758.946  -1644166.612
10 0 59530   8862.000000  0    4082360.238   4956366.410  -2505706.732
10 0 59530   8982.000000  0    3976454.776   4545735.597  -3323253.551
10 0 59530   9102.000000  0    3793434.271   4058458.985  -4082510.442
10 0 59530   9222.000000  0    3535301.688   3504430.901  -4770234.714
10 0 59530   9342.000000  0    3205542.708   2894640.923  -5374464.943
10 0 59530   9462.000000  0    2809074.520   2240950.347  -5884721.761
10 0 59530   9582.000000  0    2352167.837   1555858.140  -6292179.588
10 0 59530   9702.000000  0    1842343.422    852260.800  -6589807.485
10 0 59530   9822.000000  0    1288247.013    143211.984  -6772478.363
10 0 59530   9942.000000  0     699503.496   -558315.136  -6837049.617
10 0 59530  10062.000000  0      86550.880  -1239660.707  -6782410.648
10 0 59530  10182.000000  0    -539540.080  -1888700.122  -6609498.403
10 0 59530  10302.000000  0   -1167260.357  -2494053.924  -6321284.297
10 0 59530  10422.000000  0   -1784869.469  -3045284.689  -5922729.056
10 0 59530  10542.000000  0   -2380609.816  -3533075.545  -5420705.834
10 0 59530  10662.000000  0   -2942927.280  -3949389.594  -4823894.063
10 0 59530  10782.000000  0   -3460695.515  -4287607.746  -4142641.035
10 0 59530  10902.000000  0   -3923437.397  -4542640.083  -3388792.187
10 0 59530  11022.000000  0   -4321539.943  -4711009.342  -2575493.360
10 0 59530  11142.000000  0   -4646458.126  -4790903.750  -1716966.030
10 0 59530  11262.000000  0   -4890902.002  -4782197.342   -828259.462
10 0 59530  11382.000000  0   -5049002.169  -4686436.780     75015.890
10 0 59530  11502.000000  0   -5116449.225  -4506794.722    976968.835
10 0 59530  11622.000000  0   -5090602.540  -4247989.280   1861716.307
10 0 59530  11742.000000  0   -4970564.742  -3916171.266   2713672.666
10 0 59530  11862.000000  0   -4757220.730  -3518782.928   3517832.505
10 0 59530  11982.000000  0   -4453240.616  -3064392.280   4260041.495
10 0 59530  12102.000000  0   -4063045.645  -2562506.310   4927249.950
10 0 59530  12222.000000  0   -3592739.040  -2023368.989   5507741.701
10 0 59530  12342.000000  0   -3050005.581  -1457750.273   5991337.079
10 0 59530  12462.000000  0   -2443980.542   -876728.941   6369568.604
10 0 59530  12582.000000  0   -1785089.719   -291472.743   6635824.266
10 0 59530  12702.000000  0   -1084864.988    286977.014   6785455.492
10 0 59530  12822.000000  0    -355741.175    847911.907   6815852.447
10 0 59530  12942.000000  0     389164.582   1381153.887   6726486.918
10 0 59530  13062.000000  0    1136288.241   1877239.855   6518921.146
10 0 59530  13182.000000  0    1871865.290   2327589.762   6196781.466
10 0 59530  13302.000000  0    2582183.427   2724655.119   5765698.918
10 0 59530  13422.000000  0    3253839.225   3062047.566   5233217.534
10 0 59530  13542.000000  0    3873994.565   3334644.784   4608667.850
10 0 59530  13662.000000  0    4430624.643   3538670.576   3903007.974
10 0 59530  13782.000000  0    4912757.967   3671749.117   3128637.675
10 0 59530  13902.000000  0    5310700.811   3732931.242   2299179.195
10 0 59530  14022.000000  0    5616237.303   3722689.703   1429235.502
10 0 59530  14142.000000  0    5822803.698   3642886.324    534128.063
10 0 59530  14262.000000  0    5925630.719   3496709.745   -370381.166
10 0 59530  14382.000000  0    5921849.767   3288585.497  -1268376.056
10 0 59530  14502.000000  0    5810561.038   3024061.050  -2144074.846
10 0 59530  14622.000000  0    5592861.197   2709669.443  -2982114.116
10 0 59530  14742.000000  0    5271831.819   2352775.013  -3767822.687
10 0 59530  14862.000000  0    4852489.427   1961404.681  -4487480.394
10 0 59530  14982.000000  0    4341695.935   1544068.977  -5128556.036
10 0 59530  15102.000000  0    3748035.699   1109578.598  -5679917.961
10 0 59530  15222.000000  0    3081662.722    666860.995  -6132018.361
10 0 59530  15342.000000  0    2354119.749    224779.778  -6477047.838
10 0 59530  15462.000000  0    1578134.992   -208038.653  -6709058.240
10 0 59530  15582.000000  0     767400.647   -623369.135  -6824055.796
10 0 59530  15702.000000  0     -63666.810  -1013540.169  -6820062.771
10 0 59530  15822.000000  0    -900177.307  -1371571.250  -6697146.108
10 0 59530  15942.000000  0   -1727027.043  -1691294.337  -6457417.248
10 0 59530  16062.000000  0   -2529165.386  -1967458.425  -6104999.876
10 0 59530  16182.000000  0   -3291862.672  -2195814.637  -5645965.933
10 0 59530  16302.000000  0   -4000977.538  -2373182.324  -5088242.959
10 0 59530  16422.000000  0   -4643221.165  -2497494.355  -4441489.003
10 0 59530  16542.000000  0   -5206410.524  -2567819.888  -3716936.028
10 0 59530  16662.000000  0   -5679706.964  -2584364.456  -2927204.185
10 0 59530  16782.000000  0   -6053834.573  -2548446.342  -2086087.788
10 0 59530  16902.000000  0   -6321272.155  -2462449.792  -1208316.760
10 0 59530  17022.000000  0   -6476414.300  -2329755.626   -309297.159
10 0 59530  17142.000000  0   -6515696.171  -2154650.431    595164.121
10 0 59530  17262.000000  0   -6437679.014  -1942216.286   1489144.968
10 0 59530  17382.000000  0   -6243092.360  -1698203.834   2356898.121
10 0 59530  17502.000000  0   -5934831.217  -1428892.212   3183137.435
10 0 59530  17622.000000  0   -5517910.988  -1140939.045   3953314.740
10 0 59530  17742.000000  0   -4999377.954   -841224.301   4653882.472
10 0 59530  17862.000000  0   -4388179.879   -536692.716   5272532.226
10 0 59530  17982.000000  0   -3695003.510   -234198.795   5798409.454
10 0 59530  18102.000000  0   -2932078.833     59643.217   6222301.371
10 0 59530  18222.000000  0   -2112955.010    338600.313   6536792.862
10 0 59530  18342.000000  0   -1252254.030    596948.773   6736390.025
10 0 59530  18462.000000  0    -365406.575    829589.069   6817610.171
10 0 59530  18582.000000  0     531624.934   1032144.879   6779038.025
10 0 59530  18702.000000  0    1422632.607   1201044.799   6621348.726
10 0 59530  18822.000000  0    2291455.001   1333585.712   6347296.693
10 0 59530  18942.000000  0    3122269.570   1427976.043   5961670.769
10 0 59530  19062.000000  0    3899882.868   1483358.764   5471215.924
10 0 59530  19182.000000  0    4610011.254   1499813.599   4884520.228
10 0 59530  19302.000000  0    5239548.366   1478339.252   4211872.105
10 0 59530  19422.000000  0    5776817.424   1420815.131   3465084.880
10 0 59530  19542.000000  0    6211796.980   1329943.569   2657289.230
10 0 59530  19662.000000  0    6536316.735   1209172.210   1802702.231
10 0 59530  19782.000000  0    6744220.246   1062600.473    916373.086
10 0 59530  19902.000000  0    6831487.589    894871.059     13911.450
10 0 59530  20022.000000  0    6796316.791    711049.384   -888795.812
10 0 59530  20142.000000  0    6639158.852    516493.945  -1775874.064
10 0 59530  20262.000000  0    6362707.189    316720.746  -2631747.382
10 0 59530  20382.000000  0    5971843.428    117265.896  -3441417.700
10 0 59530  20502.000000  0    5473540.348    -76450.153  -4190730.852
10 0 59530  20622.000000  0    4876723.990   -259253.337  -4866623.577
10 0 59530  20742.000000  0    4192100.556   -426338.206  -5457345.337
10 0 59530  20862.000000  0    3431954.625   -573379.467  -5952654.363
10 0 59530  20982.000000  0    2609920.946   -696631.288  -6343985.946
10 0 59530  21102.000000  0    1740734.686   -793010.990  -6624588.701
10 0 59530  21222.000000  0     839967.679   -860166.965  -6789629.680
10 0 59530  21342.000000  0     -76247.558   -896529.787  -6836269.668
10 0 59530  21462.000000  0    -991501.267   -901344.702  -6763705.820
10 0 59530  21582.000000  0   -1889393.069   -874686.485  -6573184.459
10 0 59530  21702.000000  0   -2753819.670   -817455.472  -6267981.481
10 0 59530  21822.000000  0   -3569256.625   -731355.528  -5853351.206
10 0 59530  21942.000000  0   -4321033.910   -618854.159  -5336447.149
10 0 59530  22062.000000  0   -4995601.647   -483124.749  -4726209.594
10 0 59530  22182.000000  0   -5580778.568   -327972.471  -4033222.531
99
